STARLINK-5699           
1 55449U 23015A   23061.83236533  .00040891  00000+0  31365-3 0  9995
2 55449  43.0004 216.8843 0001511 226.4742 133.6000 15.71362332  5581
STARLINK-5686           
1 55450U 23015B   23061.70534302  .00004523  00000+0  37880-4 0  9999
2 55450  42.9993 217.6524 0002012 276.8417  83.2222 15.71380091  5564
STARLINK-5656           
1 55451U 23015C   23061.83225443  .00003184  00000+0  27702-4 0  9991
2 55451  43.0010 216.8836 0001571 250.3174 109.7524 15.71372407  4649
STARLINK-5683           
1 55452U 23015D   23061.70492248  .00035161  00000+0  27010-3 0  9998
2 55452  43.0000 217.6496 0001667 237.8921 122.1785 15.71385647  4622
STARLINK-5684           
1 55453U 23015E   23061.70481650  .00006998  00000+0  56741-4 0  9994
2 55453  42.9997 217.6481 0001279 272.6840  87.3882 15.71365417  4629
STARLINK-5636           
1 55454U 23015F   23061.76806086  .00016592  00000+0  12959-3 0  9998
2 55454  42.9991 217.2603 0002292 238.6743 121.3900 15.71378404  4637
STARLINK-5680           
1 55455U 23015G   23061.70502350  .00006687  00000+0  54330-4 0  9994
2 55455  42.9987 217.6478 0001807 264.2071  95.8591 15.71384251  4624
STARLINK-5058           
1 55456U 23015H   23061.57748521  .00034232  00000+0  26317-3 0  9992
2 55456  42.9995 218.4145 0001749 243.2830 116.7859 15.71377716  4605
STARLINK-5682           
1 55457U 23015J   23061.70471800  .00066825  00000+0  50792-3 0  9998
2 55457  42.9990 217.6475 0001330 227.8793 132.1962 15.71403934  4621
STARLINK-5020           
1 55458U 23015K   23061.83120590  .00107979  00000+0  81574-3 0  9998
2 55458  43.0007 216.8753 0002094 266.2623  93.8005 15.71369031  4642
STARLINK-5669           
1 55459U 23015L   23061.76785098  .00101416  00000+0  76622-3 0  9999
2 55459  43.0006 217.2602 0002894 254.3609 105.6939 15.71390230  4632
STARLINK-5678           
1 55460U 23015M   23061.83130507  .00110100  00000+0  83032-3 0  9991
2 55460  43.0011 216.8772 0003778 250.0211 110.0250 15.71397028  4646
STARLINK-5646           
1 55461U 23015N   23061.70439571  .00000488  00000+0  71675-5 0  9990
2 55461  43.0004 217.6451 0001940 265.1338  94.9308 15.71362170  4620
STARLINK-5673           
1 55462U 23015P   23061.83088602  .00085342  00000+0  64669-3 0  9995
2 55462  43.0013 216.8745 0003183 267.3381  92.7123 15.71384670  4643
STARLINK-5677           
1 55463U 23015Q   23061.83109971  .00015475  00000+0  12115-3 0  9998
2 55463  42.9998 216.8761 0003083 247.6731 112.3810 15.71369962  4640
STARLINK-5676           
1 55464U 23015R   23061.76701343  .00005789  00000+0  47560-4 0  9992
2 55464  43.0013 217.2535 0001683 262.6014  97.4662 15.71354227  4635
STARLINK-5674           
1 55465U 23015S   23061.83078197  .00112077  00000+0  84547-3 0  9999
2 55465  43.0009 216.8730 0002750 256.1391 103.9171 15.71386530  4646
STARLINK-5628           
1 55466U 23015T   23061.83015426  .00064233  00000+0  48887-3 0  9993
2 55466  43.0007 216.8681 0002373 251.0712 108.9899 15.71384421  4641
STARLINK-5679           
1 55467U 23015U   23061.83098792  .00103378  00000+0  78021-3 0  9998
2 55467  43.0010 216.8744 0003291 262.8095  97.2399 15.71406662  4647
STARLINK-5672           
1 55468U 23015V   23061.70334405  .00002667  00000+0  23760-4 0  9999
2 55468  43.0008 217.6382 0003201 254.5259 105.5256 15.71386963  4627
STARLINK-5681           
1 55469U 23015W   23061.57643291  .00054417  00000+0  41515-3 0  9998
2 55469  43.0000 218.4038 0003513 274.2496  85.7970 15.71382015  4609
STARLINK-5708           
1 55470U 23015X   23061.83035921  .00031871  00000+0  24518-3 0  9997
2 55470  43.0012 216.8675 0003369 243.7781 116.2741 15.71387140  4644
STARLINK-5711           
1 55471U 23015Y   23061.70313616  .00031122  00000+0  23967-3 0  9990
2 55471  43.0014 217.6347 0002109 255.6645 104.3989 15.71375887  4629
STARLINK-5705           
1 55472U 23015Z   23061.70271236  .00006654  00000+0  54091-4 0  9997
2 55472  42.9988 217.6326 0002842 250.9287 109.1273 15.71379820  4629
STARLINK-5687           
1 55473U 23015AA  23061.70292314  .00066932  00000+0  50874-3 0  9997
2 55473  43.0001 217.6324 0002618 245.6284 114.4311 15.71400521  4620
STARLINK-5689           
1 55474U 23015AB  23061.83334491 -.00972732  00000+0 -14629-1 0  9997
2 55474  42.9999 217.2166 0001607 274.8366 316.0276 15.56410119  1306
STARLINK-5650           
1 55475U 23015AC  23061.82993907  .00013576  00000+0  10667-3 0  9990
2 55475  43.0012 216.8662 0003243 241.8373 118.2168 15.71382574  4643
STARLINK-5596           
1 55476U 23015AD  23061.79510743  .00004166  00000+0  35200-4 0  9996
2 55476  43.0020 215.6567 0001743 273.9818  86.0851 15.71355876  4654
STARLINK-5685           
1 55477U 23015AE  23061.70250296  .00045863  00000+0  35075-3 0  9990
2 55477  43.0010 217.6291 0002327 249.0834 110.9785 15.71388498  4627
STARLINK-5691           
1 55478U 23015AF  23061.82889043  .00044939  00000+0  34403-3 0  9999
2 55478  43.0011 216.8567 0002654 253.0166 107.0411 15.71371384  4643
STARLINK-5688           
1 55479U 23015AG  23061.70260893  .00038912  00000+0  29846-3 0  9992
2 55479  43.0002 217.6304 0002089 235.2093 124.8579 15.71380786  4621
STARLINK-5690           
1 55480U 23015AH  23061.83334491  .00109630  00000+0  12590-2 0  9997
2 55480  42.9997 217.1472 0001481 298.1562 320.5355 15.60962320  1306
STARLINK-5694           
1 55481U 23015AJ  23061.83334491 -.01148746  00000+0 -17317-1 0  9993
2 55481  42.9998 217.2089 0001308 278.2497 315.6317 15.56782691  1306
STARLINK-5693           
1 55482U 23015AK  23061.83334491 -.01148288  00000+0 -16917-1 0  9990
2 55482  42.9995 217.1642 0001347 276.8619 335.1551 15.57389839  1306
STARLINK-5692           
1 55483U 23015AL  23061.83334491 -.01148219  00000+0 -17110-1 0  9991
2 55483  42.9998 217.1860 0001316 276.5665 326.4885 15.57088143  1303
STARLINK-5696           
1 55484U 23015AM  23061.83334491 -.01149329  00000+0 -16996-1 0  9996
2 55484  42.9997 217.1716 0001368 280.4148 328.4904 15.57292997  1308
STARLINK-5695           
1 55485U 23015AN  23061.83334491 -.01148530  00000+0 -17224-1 0  9995
2 55485  42.9998 217.1990 0001308 279.1804 318.6927 15.56920097  1306
STARLINK-5704           
1 55486U 23015AP  23061.83334491 -.01136676  00000+0 -17003-1 0  9999
2 55486  42.9996 217.1749 0001187 277.7226 330.4721 15.56959112  1308
STARLINK-5701           
1 55487U 23015AQ  23061.83334491 -.01152402  00000+0 -17331-1 0  9999
2 55487  42.9998 217.2040 0001281 273.9590 321.9706 15.56854883  1300
STARLINK-5706           
1 55488U 23015AR  23061.83334491 -.01134619  00000+0 -16595-1 0  9991
2 55488  42.9993 217.1518 0001358 267.8178 349.2484 15.57547448  1307
STARLINK-5371           
1 55489U 23015AS  23061.83334491 -.01152050  00000+0 -17131-1 0  9998
2 55489  42.9997 217.1816 0001299 274.0283 330.9092 15.57153506  1304
STARLINK-5373           
1 55490U 23015AT  23061.83334491 -.01148184  00000+0 -16721-1 0  9997
2 55490  42.9998 217.1421 0001370 276.7189 344.1925 15.57694684  1302
STARLINK-5364           
1 55491U 23015AU  23061.76232010  .00006722  00000+0  54687-4 0  9998
2 55491  43.0003 217.2066 0001990 275.5887  84.4754 15.71345384  4637
STARLINK-5013           
1 55492U 23015AV  23061.83334491 -.01148753  00000+0 -16856-1 0  9990
2 55492  42.9995 217.1560 0001369 278.5412 336.7550 15.57496956  1305
STARLINK-5362           
1 55493U 23015AW  23061.83334491 -.01147362  00000+0 -16751-1 0  9990
2 55493  42.9999 217.1470 0001342 270.8680 348.1492 15.57626716  1304
STARLINK-5344           
1 55494U 23015AX  23061.83334491 -.01147271  00000+0 -16659-1 0  9997
2 55494  42.9998 217.1370 0001351 272.7100 350.2407 15.57769558  1303
STARLINK-5100           
1 55495U 23015AY  23061.83334491  .00077712  00000+0  59153-3 0  9995
2 55495  43.0010 216.8224 0002719 250.0339 139.4295 15.71313155  1303
STARLINK-5139           
1 55496U 23015AZ  23061.83334491  .00120054  00000+0  11930-2 0  9994
2 55496  43.0001 217.0494 0001603 297.6623   0.9819 15.64620297  1304
STARLINK-5363           
1 55497U 23015BA  23061.83334491 -.01147713  00000+0 -16629-1 0  9998
2 55497  42.9998 217.1326 0001365 272.8215 351.8365 15.57828167  1302
STARLINK-5365           
1 55498U 23015BB  23061.83334491 -.01147612  00000+0 -16499-1 0  9992
2 55498  42.9998 217.1190 0001381 272.2880 358.0026 15.58032020  1301
STARLINK-5366           
1 55499U 23015BC  23061.83334491 -.01147386  00000+0 -16421-1 0  9996
2 55499  42.9997 217.1105 0001388 275.7652 357.9309 15.58150799  1305
STARLINK-5141           
1 55500U 23015BD  23061.83334491 -.01150722  00000+0 -16624-1 0  9992
2 55500  42.9996 217.1274 0001234 269.5166 357.2777 15.57913488  1308
STARLINK-5367           
1 55501U 23015BE  23061.83334491 -.01147158  00000+0 -16449-1 0  9997
2 55501  42.9996 217.1141 0001384 278.8969 353.2667 15.58100278  1302
FALCON 9 DEB            
1 55502U 23015BF  23061.79914013  .00399085  69410-4  10888-2 0  9999
2 55502  42.9866 213.9042 0015701 342.5301  17.5032 15.93083313  4678
FALCON 9 DEB            
1 55503U 23015BG  23061.78357236  .00404531  72342-4  10177-2 0  9999
2 55503  42.9803 213.7651 0017530 341.0771  18.9452 15.94537933  4675
FALCON 9 DEB            
1 55504U 23015BH  23061.76418747  .00445039  87456-4  10570-2 0  9990
2 55504  42.9794 213.5950 0017762 351.8416   8.2169 15.95579899  4672
FALCON 9 DEB            
1 55505U 23015BJ  23061.70262638  .00435788  83748-4  10499-2 0  9991
2 55505  42.9748 213.9887 0019395 349.6667  10.3808 15.95262390  4660
ELEKTRO-L 4             
1 55506U 23016A   23061.09881398 -.00000076  00000+0  00000+0 0  9993
2 55506   0.5051 285.8611 0007286  48.4457  25.6260  1.00261224   256
BLOCK DM-SL R/B         
1 55507U 23016B   23060.59583853 -.00000032  00000+0  00000+0 0  9995
2 55507   0.3781 275.9463 0096471  29.6451  53.4837  1.03217463   257
